NORAD_CAT_ID,OBJECT_NAME,OBJECT_TYPE,EPOCH,MEAN_MOTION,ECCENTRICITY,INCLINATION,RA_OF_ASC_NODE,ARG_OF_PERICENTER,MEAN_ANOMALY,BSTAR,MEAN_MOTION_DOT,MEAN_MOTION_DDOT,TLE_LINE0,TLE_LINE1,TLE_LINE2,SEMIMAJOR_AXIS,PERIOD,APOGEE,PERIGEE,DECAYED
55289.0,STARLINK-5320,PAYLOAD,2023-03-23 13:50:33,15.69921194,0.0003244,70.0026,251.6638,267.4227,92.6597,2.4786e-05,2.768e-05,0.0,0 STARLINK-5320,1 55289U 23010W   23082.57678214  .00002768  00000-0  24786-4 0  9994,2 55289  70.0026 251.6638 0003244 267.4227  92.6597 15.69921194 10714,6737.259,91.724,361.31,356.939,0.0
55289.0,STARLINK-5320,PAYLOAD,2023-03-23 19:57:33,15.6994861,0.0003187,70.0021,250.9475,257.7404,102.3435,9.6072e-05,0.00011366,0.0,0 STARLINK-5320,1 55289U 23010W   23082.83163778  .00011366  00000-0  96072-4 0  9998,2 55289  70.0021 250.9475 0003187 257.7404 102.3435 15.69948610 10447,6737.181,91.723,361.193,356.899,0.0
55289.0,STARLINK-5320,PAYLOAD,2023-03-23 21:29:18,15.6994962,0.0003163,70.0028,250.7695,252.9035,107.1814,9.4234e-05,0.00011145,0.0,0 STARLINK-5320,1 55289U 23010W   23082.89535289  .00011145  00000-0  94234-4 0  9997,2 55289  70.0028 250.7695 0003163 252.9035 107.1814 15.69949620 10768,6737.178,91.723,361.174,356.912,0.0
55289.0,STARLINK-5320,PAYLOAD,2023-03-24 12:46:49,15.6994625,0.0003825,70.0025,248.9779,259.3963,100.6802,5.2047e-05,6.056e-05,0.0,0 STARLINK-5320,1 55289U 23010W   23083.53251434  .00006056  00000-0  52047-4 0  9997,2 55289  70.0025 248.9779 0003825 259.3963 100.6802 15.69946250 10551,6737.188,91.723,361.63,356.476,0.0
55289.0,STARLINK-5320,PAYLOAD,2023-03-24 14:18:34,15.69920448,0.0003687,70.0012,248.7978,257.3207,102.7577,-3.669e-05,-4.622e-05,0.0,0 STARLINK-5320,1 55289U 23010W   23083.59623616 -.00004622  00000-0 -36690-4 0  9993,2 55289  70.0012 248.7978 0003687 257.3207 102.7577 15.69920448 10879,6737.262,91.724,361.611,356.643,0.0
55289.0,STARLINK-5320,PAYLOAD,2023-03-24 17:22:05,15.69918299,0.0003957,70.0013,248.4397,265.8949,94.1794,-3.4251e-05,-4.329e-05,0.0,0 STARLINK-5320,1 55289U 23010W   23083.72367093 -.00004329  00000-0 -34251-4 0  9997,2 55289  70.0013 248.4397 0003957 265.8949  94.1794 15.69918299 10583,6737.268,91.725,361.799,356.467,0.0
55289.0,STARLINK-5320,PAYLOAD,2023-03-24 20:25:37,15.69864012,0.0003066,70.0015,248.0816,266.2033,93.8812,-0.00019223,-0.00023204,0.0,0 STARLINK-5320,1 55289U 23010W   23083.85112549 -.00023204  00000-0 -19223-3 0  9999,2 55289  70.0015 248.0816 0003066 266.2033  93.8812 15.69864012 10600,6737.423,91.728,361.354,357.222,0.0
55289.0,STARLINK-5320,PAYLOAD,2023-03-25 11:43:08,15.69920955,0.0003307,70.0039,246.291,276.1317,83.9502,3.3396e-05,3.804e-05,0.0,0 STARLINK-5320,1 55289U 23010W   23084.48829078  .00003804  00000-0  33396-4 0  9991,2 55289  70.0039 246.2910 0003307 276.1317  83.9502 15.69920955 10700,6737.26,91.724,361.353,356.897,0.0
55289.0,STARLINK-5320,PAYLOAD,2023-03-25 20:53:38,15.69950786,0.0003612,70.0001,245.2148,278.4646,81.614,0.00021977,0.00026326,0.0,0 STARLINK-5320,1 55289U 23010W   23084.87058266  .00026326  00000-0  21977-3 0  9992,2 55289  70.0001 245.2148 0003612 278.4646  81.6140 15.69950786 10764,6737.175,91.723,361.473,356.606,0.0
55289.0,STARLINK-5320,PAYLOAD,2023-03-26 12:11:08,15.69961265,0.0003408,70.0005,243.4233,281.6178,78.4635,0.00015336,0.00018296,0.0,0 STARLINK-5320,1 55289U 23010W   23085.50773510  .00018296  00000-0  15336-3 0  9998,2 55289  70.0005 243.4233 0003408 281.6178  78.4635 15.69961265 10860,6737.145,91.722,361.306,356.714,0.0
55289.0,STARLINK-5320,PAYLOAD,2023-03-26 19:49:54,15.69907972,0.0004141,70.0007,242.5283,268.3995,91.6727,-2.5142e-05,-3.234e-05,0.0,0 STARLINK-5320,1 55289U 23010W   23085.82632944 -.00003234  00000-0 -25142-4 0  9993,2 55289  70.0007 242.5283 0004141 268.3995  91.6727 15.69907972 10911,6737.297,91.725,361.952,356.372,0.0
55289.0,STARLINK-5320,PAYLOAD,2023-03-27 12:39:10,15.6993313,0.0003485,70.0021,240.5588,273.4418,86.6379,-1.6155e-05,-2.156e-05,0.0,0 STARLINK-5320,1 55289U 23010W   23086.52720838 -.00002156  00000-0 -16155-4 0  9997,2 55289  70.0021 240.5588 0003485 273.4418  86.6379 15.69933130 11025,6737.225,91.724,361.438,356.742,0.0
55289.0,STARLINK-5320,PAYLOAD,2023-03-27 20:17:55,15.6994135,0.0004191,69.9988,239.6612,271.0819,88.9896,7.1143e-06,6.43e-06,0.0,0 STARLINK-5320,1 55289U 23010W   23086.84578666  .00000643  00000-0  71143-5 0  9998,2 55289  69.9988 239.6612 0004191 271.0819  88.9896 15.69941350 11386,6737.202,91.723,361.89,356.243,0.0
55289.0,STARLINK-5320,PAYLOAD,2023-03-28 13:07:13,15.69923919,0.0003593,70.0019,237.6918,271.1519,88.9265,5.7017e-05,6.649e-05,0.0,0 STARLINK-5320,1 55289U 23010W   23087.54668147  .00006649  00000-0  57017-4 0  9995,2 55289  70.0019 237.6918 0003593 271.1519  88.9265 15.69923919 11497,6737.252,91.724,361.537,356.696,0.0
55289.0,STARLINK-5320,PAYLOAD,2023-03-28 16:10:43,15.6993058,0.000349,70.0015,237.3335,271.386,88.6936,6.7446e-05,7.907e-05,0.0,0 STARLINK-5320,1 55289U 23010W   23087.67411289  .00007907  00000-0  67446-4 0  9997,2 55289  70.0015 237.3335 0003490 271.3860  88.6936 15.69930580 11203,6737.233,91.724,361.449,356.746,0.0
55289.0,STARLINK-5320,PAYLOAD,2023-03-28 17:42:28,15.6993135,0.0003544,70.0017,237.1548,271.7675,88.3114,6.41e-05,7.504e-05,0.0,0 STARLINK-5320,1 55289U 23010W   23087.73782901  .00007504  00000-0  64100-4 0  9993,2 55289  70.0017 237.1548 0003544 271.7675  88.3114 15.69931350 11523,6737.23,91.724,361.483,356.708,0.0
55289.0,STARLINK-5320,PAYLOAD,2023-03-29 02:52:59,15.69923857,0.0003798,70.0003,236.0788,270.7317,89.3444,2.2357e-05,2.476e-05,0.0,0 STARLINK-5320,1 55289U 23010W   23088.12013173  .00002476  00000-0  22357-4 0  9996,2 55289  70.0003 236.0788 0003798 270.7317  89.3444 15.69923857 11277,6737.252,91.724,361.676,356.558,0.0
55289.0,STARLINK-5320,PAYLOAD,2023-03-29 12:03:30,15.69922254,0.0003568,70.0006,235.0044,270.0103,90.0684,7.2236e-06,6.56e-06,0.0,0 STARLINK-5320,1 55289U 23010W   23088.50243321  .00000656  00000-0  72236-5 0  9998,2 55289  70.0006 235.0044 0003568 270.0103  90.0684 15.69922254 11641,6737.256,91.724,361.525,356.718,0.0
55289.0,STARLINK-5320,PAYLOAD,2023-03-29 21:14:00,15.69927317,0.0003233,70.0019,233.9314,267.4735,92.6091,2.1501e-05,2.374e-05,0.0,0 STARLINK-5320,1 55289U 23010W   23088.88473337  .00002374  00000-0  21501-4 0  9998,2 55289  70.0019 233.9314 0003233 267.4735  92.6091 15.69927317 11704,6737.242,91.724,361.285,356.929,0.0
55289.0,STARLINK-5320,PAYLOAD,2023-03-30 12:31:32,15.69929269,0.0003675,70.0002,232.1387,265.147,94.9306,1.3529e-05,1.415e-05,0.0,0 STARLINK-5320,1 55289U 23010W   23089.52189817  .00001415  00000-0  13529-4 0  9993,2 55289  70.0002 232.1387 0003675 265.1470  94.9306 15.69929269 11496,6737.236,91.724,361.577,356.625,0.0
55289.0,STARLINK-5320,PAYLOAD,2023-03-30 18:38:32,15.69932241,0.0003591,70.0003,231.4225,265.9631,94.1154,2.8673e-05,3.237e-05,0.0,0 STARLINK-5320,1 55289U 23010W   23089.77676451  .00003237  00000-0  28673-4 0  9995,2 55289  70.0003 231.4225 0003591 265.9631  94.1154 15.69932241 11840,6737.228,91.724,361.512,356.674,0.0
55289.0,STARLINK-5320,PAYLOAD,2023-03-31 12:59:34,15.69917611,0.0003344,70.0009,229.2717,265.5215,94.5599,-4.7335e-06,-7.82e-06,0.0,0 STARLINK-5320,1 55289U 23010W   23090.54137002 -.00000782  00000-0 -47335-5 0  9997,2 55289  70.0009 229.2717 0003344 265.5215  94.5599 15.69917611 11657,6737.27,91.725,361.388,356.882,0.0
55289.0,STARLINK-5320,PAYLOAD,2023-03-31 19:06:34,15.69928073,0.000283,70.0015,228.5547,269.0027,91.0844,3.8967e-05,4.476e-05,0.0,0 STARLINK-5320,1 55289U 23010W   23090.79623610  .00004476  00000-0  38967-4 0  9991,2 55289  70.0015 228.5547 0002830 269.0027  91.0844 15.69928073 11699,6737.24,91.724,361.011,357.198,0.0
55289.0,STARLINK-5320,PAYLOAD,2023-04-01 11:55:52,15.69886791,0.0002877,70.0003,226.5859,234.035,126.0579,-0.00012345,-0.00015005,0.0,0 STARLINK-5320,1 55289U 23010W   23091.49713090 -.00015005  00000-0 -12345-3 0  9994,2 55289  70.0003 226.5859 0002877 234.0350 126.0579 15.69886791 11809,6737.358,91.726,361.161,357.285,0.0
55289.0,STARLINK-5320,PAYLOAD,2023-04-01 18:02:53,15.69882621,0.0002813,70.0011,225.8711,248.6578,111.4317,-9.6527e-05,-0.00011781,0.0,0 STARLINK-5320,1 55289U 23010W   23091.75200608 -.00011781  00000-0 -96527-4 0  9991,2 55289  70.0011 225.8711 0002813 248.6578 111.4317 15.69882621 12155,6737.37,91.727,361.13,357.34,0.0
55289.0,STARLINK-5320,PAYLOAD,2023-04-02 07:48:38,15.69938413,0.0003633,70.0028,224.258,279.5727,80.5058,0.00012026,0.00014281,0.0,0 STARLINK-5320,1 55289U 23010W   23092.32544497  .00014281  00000-0  12026-3 0  9999,2 55289  70.0028 224.2580 0003633 279.5727  80.5058 15.69938413 11934,6737.21,91.723,361.523,356.628,0.0
55289.0,STARLINK-5320,PAYLOAD,2023-04-02 12:23:53,15.6994965,0.0002935,70.0041,223.7239,264.5743,95.5118,0.00013052,0.00015526,0.0,0 STARLINK-5320,1 55289U 23010W   23092.51658975  .00015526  00000-0  13052-3 0  9990,2 55289  70.0041 223.7239 0002935 264.5743  95.5118 15.69949650 12276,6737.178,91.723,361.02,357.066,0.0
55289.0,STARLINK-5320,PAYLOAD,2023-04-02 18:30:54,15.69925536,0.0003048,70.001,223.0006,290.399,69.6878,4.2373e-05,4.885e-05,0.0,0 STARLINK-5320,1 55289U 23010W   23092.77146545  .00004885  00000-0  42373-4 0  9998,2 55289  70.0010 223.0006 0003048 290.3990  69.6878 15.69925536 12007,6737.247,91.724,361.166,357.059,0.0
55289.0,STARLINK-5320,PAYLOAD,2023-04-03 11:20:09,15.69940028,0.000386,70.0008,221.0317,274.7718,85.3037,1.2715e-05,1.317e-05,0.0,0 STARLINK-5320,1 55289U 23010W   23093.47233714  .00001317  00000-0  12715-4 0  9995,2 55289  70.0008 221.0317 0003860 274.7718  85.3037 15.69940028 12110,6737.206,91.723,361.671,356.47,0.0
55289.0,STARLINK-5320,PAYLOAD,2023-04-04 07:12:56,15.69928186,0.0004303,70.0024,218.7051,279.7773,80.2937,4.5931e-05,5.315e-05,0.0,0 STARLINK-5320,1 55289U 23010W   23094.30065720  .00005315  00000-0  45931-4 0  9996,2 55289  70.0024 218.7051 0004303 279.7773  80.2937 15.69928186 12243,6737.239,91.724,362.003,356.205,0.0
